start=new Date('2021-12-02T00:00:00.000Z').valueOf();
sats=[{"MEAN_MOTION_DOT":"0.00000999","REF_FRAME":"TEME","EPOCH":"2021-12-01T18:06:24.234624","TLE_LINE2":"2 46343  53.0540 154.9557 0001952  85.9390 274.1822 15.06392526 69804","MEAN_ANOMALY":"274.1822","MEAN_MOTION_DDOT":"0.0000000000000","SITE":"AFETR","TLE_LINE1":"1 46343U 20062U   21335.75444716  .00000999  00000-0  85958-4 0  9998","COUNTRY_CODE":"US","ELEMENT_SET_NO":"999","RA_OF_ASC_NODE":"154.9557","BSTAR":"0.00008595800000","ARG_OF_PERICENTER":"85.9390","ECCENTRICITY":"0.00019520","EPHEMERIS_TYPE":"0","CENTER_NAME":"EARTH","LAUNCH_DATE":"2020-09-03","TIME_SYSTEM":"UTC","CLASSIFICATION_TYPE":"U","INCLINATION":"53.0540","NORAD_CAT_ID":"46343","MEAN_MOTION":"15.06392526","REV_AT_EPOCH":"6980","RCS_SIZE":"LARGE","FILE":"3229227","SEMIMAJOR_AXIS":"6925.371","DECAY_DATE":null,"PERIOD":"95.593","GP_ID":"190863879","PERIAPSIS":"545.885","OBJECT_ID":"2020-062U","OBJECT_NAME":"STARLINK-1764","OBJECT_TYPE":"PAYLOAD","APOAPSIS":"548.588","MEAN_ELEMENT_THEORY":"SGP4"},{"SITE":"AFETR","TLE_LINE1":"1 46344U 20062V   21335.50749448  .00000831  00000-0  74730-4 0  9993","COUNTRY_CODE":"US","RA_OF_ASC_NODE":"156.0551","ELEMENT_SET_NO":"999","BSTAR":"0.00007473000000","ARG_OF_PERICENTER":"81.8936","ECCENTRICITY":"0.00021270","MEAN_MOTION_DOT":"0.00000831","REF_FRAME":"TEME","EPOCH":"2021-12-01T12:10:47.523072","TLE_LINE2":"2 46344  53.0526 156.0551 0002127  81.8936 278.2294 15.06391557 69588","MEAN_ANOMALY":"278.2294","MEAN_MOTION_DDOT":"0.0000000000000","REV_AT_EPOCH":"6958","RCS_SIZE":"LARGE","FILE":"3229140","PERIOD":"95.593","DECAY_DATE":null,"SEMIMAJOR_AXIS":"6925.374","GP_ID":"190861270","PERIAPSIS":"545.766","OBJECT_ID":"2020-062V","OBJECT_NAME":"STARLINK-1765","OBJECT_TYPE":"PAYLOAD","MEAN_ELEMENT_THEORY":"SGP4","APOAPSIS":"548.712","EPHEMERIS_TYPE":"0","CENTER_NAME":"EARTH","LAUNCH_DATE":"2020-09-03","CLASSIFICATION_TYPE":"U","TIME_SYSTEM":"UTC","INCLINATION":"53.0526","NORAD_CAT_ID":"46344","MEAN_MOTION":"15.06391557"},{"RA_OF_ASC_NODE":"174.8519","ELEMENT_SET_NO":"999","SITE":"AFETR","TLE_LINE1":"1 46345U 20062W   21335.77470896  .00001229  00000-0  10141-3 0  9998","COUNTRY_CODE":"US","ARG_OF_PERICENTER":"82.2645","ECCENTRICITY":"0.00020490","BSTAR":"0.00010141000000","REF_FRAME":"TEME","TLE_LINE2":"2 46345  53.0533 174.8519 0002049  82.2645 277.8577 15.06395035 69522","EPOCH":"2021-12-01T18:35:34.854144","MEAN_MOTION_DOT":"0.00001229","MEAN_ANOMALY":"277.8577","MEAN_MOTION_DDOT":"0.0000000000000","GP_ID":"190863889","PERIAPSIS":"545.810","REV_AT_EPOCH":"6952","RCS_SIZE":"LARGE","FILE":"3229222","SEMIMAJOR_AXIS":"6925.364","DECAY_DATE":null,"PERIOD":"95.592","OBJECT_NAME":"STARLINK-1767","OBJECT_TYPE":"PAYLOAD","MEAN_ELEMENT_THEORY":"SGP4","APOAPSIS":"548.648","OBJECT_ID":"2020-062W","CENTER_NAME":"EARTH","LAUNCH_DATE":"2020-09-03","TIME_SYSTEM":"UTC","CLASSIFICATION_TYPE":"U","EPHEMERIS_TYPE":"0","NORAD_CAT_ID":"46345","MEAN_MOTION":"15.06395035","INCLINATION":"53.0533"},{"MEAN_ANOMALY":"309.9507","MEAN_MOTION_DDOT":"0.0000000000000","MEAN_MOTION_DOT":"-0.00000411","REF_FRAME":"TEME","EPOCH":"2021-12-01T12:17:34.156032","TLE_LINE2":"2 46346  53.0541  58.3704 0001649  50.1639 309.9507 15.34259173 70969","BSTAR":"-0.00000104600000","ARG_OF_PERICENTER":"50.1639","ECCENTRICITY":"0.00016490","SITE":"AFETR","COUNTRY_CODE":"US","TLE_LINE1":"1 46346U 20062X   21335.51220088 -.00000411  00000-0 -10460-5 0  9997","RA_OF_ASC_NODE":"58.3704","ELEMENT_SET_NO":"999","INCLINATION":"53.0541","NORAD_CAT_ID":"46346","MEAN_MOTION":"15.34259173","EPHEMERIS_TYPE":"0","CENTER_NAME":"EARTH","CLASSIFICATION_TYPE":"U","TIME_SYSTEM":"UTC","LAUNCH_DATE":"2020-09-03","OBJECT_ID":"2020-062X","OBJECT_NAME":"STARLINK-1546","MEAN_ELEMENT_THEORY":"SGP4","APOAPSIS":"464.252","OBJECT_TYPE":"PAYLOAD","DECAY_DATE":null,"FILE":"3229140","SEMIMAJOR_AXIS":"6841.259","PERIOD":"93.856","REV_AT_EPOCH":"7096","RCS_SIZE":"LARGE","GP_ID":"190859769","PERIAPSIS":"461.996"},{"EPOCH":"2021-12-01T11:13:03.347040","TLE_LINE2":"2 46347  53.0567 131.2276 0001502  87.9486 272.1675 15.06394887 69910","REF_FRAME":"TEME","MEAN_MOTION_DOT":"0.00000456","MEAN_MOTION_DDOT":"0.0000000000000","MEAN_ANOMALY":"272.1675","ELEMENT_SET_NO":"999","RA_OF_ASC_NODE":"131.2276","COUNTRY_CODE":"US","TLE_LINE1":"1 46347U 20062Y   21335.46739985  .00000456  00000-0  49515-4 0  9992","SITE":"AFETR","ARG_OF_PERICENTER":"87.9486","ECCENTRICITY":"0.00015020","BSTAR":"0.00004951500000","CLASSIFICATION_TYPE":"U","TIME_SYSTEM":"UTC","LAUNCH_DATE":"2020-09-03","CENTER_NAME":"EARTH","EPHEMERIS_TYPE":"0","NORAD_CAT_ID":"46347","MEAN_MOTION":"15.06394887","INCLINATION":"53.0567","PERIAPSIS":"546.189","GP_ID":"190860520","SEMIMAJOR_AXIS":"6925.364","FILE":"3229140","DECAY_DATE":null,"PERIOD":"95.592","REV_AT_EPOCH":"6991","RCS_SIZE":"LARGE","MEAN_ELEMENT_THEORY":"SGP4","APOAPSIS":"548.269","OBJECT_TYPE":"PAYLOAD","OBJECT_NAME":"STARLINK-1547","OBJECT_ID":"2020-062Y"},{"TIME_SYSTEM":"UTC","CLASSIFICATION_TYPE":"U","LAUNCH_DATE":"2020-09-03","CENTER_NAME":"EARTH","EPHEMERIS_TYPE":"0","NORAD_CAT_ID":"46348","MEAN_MOTION":"15.06390720","INCLINATION":"53.0534","PERIAPSIS":"545.285","GP_ID":"190866853","FILE":"3229374","SEMIMAJOR_AXIS":"6925.377","DECAY_DATE":null,"PERIOD":"95.593","REV_AT_EPOCH":"6980","RCS_SIZE":"LARGE","APOAPSIS":"549.199","MEAN_ELEMENT_THEORY":"SGP4","OBJECT_TYPE":"PAYLOAD","OBJECT_NAME":"STARLINK-1553","OBJECT_ID":"2020-062Z","TLE_LINE2":"2 46348  53.0534 154.8434 0002826  69.1606 290.9686 15.06390720 69808","EPOCH":"2021-12-01T18:38:14.290656","REF_FRAME":"TEME","MEAN_MOTION_DOT":"-0.00001025","MEAN_MOTION_DDOT":"0.0000000000000","MEAN_ANOMALY":"290.9686","ELEMENT_SET_NO":"999","RA_OF_ASC_NODE":"154.8434","COUNTRY_CODE":"US","TLE_LINE1":"1 46348U 20062Z   21335.77655429 -.00001025  00000-0 -49919-4 0  9990","SITE":"AFETR","ARG_OF_PERICENTER":"69.1606","ECCENTRICITY":"0.00028260","BSTAR":"-0.00004991900000"},{"BSTAR":"-0.00030295000000","ARG_OF_PERICENTER":"85.3420","ECCENTRICITY":"0.00019800","SITE":"AFETR","TLE_LINE1":"1 46349U 20062AA  21335.70697112 -.00004794  00000-0 -30295-3 0  9991","COUNTRY_CODE":"US","ELEMENT_SET_NO":"999","RA_OF_ASC_NODE":"130.0943","MEAN_ANOMALY":"274.7795","MEAN_MOTION_DDOT":"0.0000000000000","MEAN_MOTION_DOT":"-0.00004794","REF_FRAME":"TEME","TLE_LINE2":"2 46349  53.0725 130.0943 0001980  85.3420 274.7795 15.06423293 70148","EPOCH":"2021-12-01T16:58:02.304768","OBJECT_ID":"2020-062AA","OBJECT_NAME":"STARLINK-1575","OBJECT_TYPE":"PAYLOAD","MEAN_ELEMENT_THEORY":"SGP4","APOAPSIS":"548.513","RCS_SIZE":"LARGE","REV_AT_EPOCH":"7014","SEMIMAJOR_AXIS":"6925.277","FILE":"3229181","DECAY_DATE":null,"PERIOD":"95.591","GP_ID":"190863025","PERIAPSIS":"545.771","INCLINATION":"53.0725","NORAD_CAT_ID":"46349","MEAN_MOTION":"15.06423293","EPHEMERIS_TYPE":"0","CENTER_NAME":"EARTH","LAUNCH_DATE":"2020-09-03","CLASSIFICATION_TYPE":"U","TIME_SYSTEM":"UTC"},{"EPHEMERIS_TYPE":"0","CENTER_NAME":"EARTH","TIME_SYSTEM":"UTC","CLASSIFICATION_TYPE":"U","LAUNCH_DATE":"2020-09-03","INCLINATION":"53.0530","MEAN_MOTION":"15.06401656","NORAD_CAT_ID":"46350","DECAY_DATE":null,"FILE":"3229140","PERIOD":"95.592","SEMIMAJOR_AXIS":"6925.343","RCS_SIZE":"LARGE","REV_AT_EPOCH":"6927","GP_ID":"190860269","PERIAPSIS":"545.747","OBJECT_ID":"2020-062AB","OBJECT_NAME":"STARLINK-1617","APOAPSIS":"548.670","MEAN_ELEMENT_THEORY":"SGP4","OBJECT_TYPE":"PAYLOAD","MEAN_MOTION_DOT":"-0.00000919","REF_FRAME":"TEME","TLE_LINE2":"2 46350  53.0530 177.1000 0002110  84.5155 275.6075 15.06401656 69274","EPOCH":"2021-12-01T06:33:43.761888","MEAN_ANOMALY":"275.6075","MEAN_MOTION_DDOT":"0.0000000000000","SITE":"AFETR","COUNTRY_CODE":"US","TLE_LINE1":"1 46350U 20062AB  21335.27342317 -.00000919  00000-0 -42793-4 0  9991","RA_OF_ASC_NODE":"177.1000","ELEMENT_SET_NO":"999","BSTAR":"-0.00004279300000","ARG_OF_PERICENTER":"84.5155","ECCENTRICITY":"0.00021100"},{"EPHEMERIS_TYPE":"0","CLASSIFICATION_TYPE":"U","TIME_SYSTEM":"UTC","LAUNCH_DATE":"2020-09-03","CENTER_NAME":"EARTH","INCLINATION":"53.0522","NORAD_CAT_ID":"46351","MEAN_MOTION":"15.06408498","PERIOD":"95.592","FILE":"3229140","DECAY_DATE":null,"SEMIMAJOR_AXIS":"6925.323","RCS_SIZE":"LARGE","REV_AT_EPOCH":"6958","PERIAPSIS":"545.863","GP_ID":"190861020","OBJECT_ID":"2020-062AC","APOAPSIS":"548.512","MEAN_ELEMENT_THEORY":"SGP4","OBJECT_TYPE":"PAYLOAD","OBJECT_NAME":"STARLINK-1646","MEAN_MOTION_DOT":"0.00001273","TLE_LINE2":"2 46351  53.0522 156.1900 0001912  87.1589 272.9619 15.06408498 69580","EPOCH":"2021-12-01T11:28:18.377472","REF_FRAME":"TEME","MEAN_MOTION_DDOT":"0.0000000000000","MEAN_ANOMALY":"272.9619","COUNTRY_CODE":"US","TLE_LINE1":"1 46351U 20062AC  21335.47799048  .00001273  00000-0  10436-3 0  9991","SITE":"AFETR","ELEMENT_SET_NO":"999","RA_OF_ASC_NODE":"156.1900","BSTAR":"0.00010436000000","ARG_OF_PERICENTER":"87.1589","ECCENTRICITY":"0.00019120"},{"OBJECT_ID":"2020-062AD","OBJECT_NAME":"STARLINK-1653","OBJECT_TYPE":"PAYLOAD","APOAPSIS":"548.740","MEAN_ELEMENT_THEORY":"SGP4","REV_AT_EPOCH":"6980","RCS_SIZE":"LARGE","FILE":"3229197","SEMIMAJOR_AXIS":"6925.378","DECAY_DATE":null,"PERIOD":"95.593","GP_ID":"190863552","PERIAPSIS":"545.746","INCLINATION":"53.0535","MEAN_MOTION":"15.06390369","NORAD_CAT_ID":"46352","EPHEMERIS_TYPE":"0","CENTER_NAME":"EARTH","LAUNCH_DATE":"2020-09-03","TIME_SYSTEM":"UTC","CLASSIFICATION_TYPE":"U","BSTAR":"0.00007229200000","ARG_OF_PERICENTER":"88.1123","ECCENTRICITY":"0.00021620","SITE":"AFETR","TLE_LINE1":"1 46352U 20062AD  21335.72495568  .00000795  00000-0  72292-4 0  9997","COUNTRY_CODE":"US","ELEMENT_SET_NO":"999","RA_OF_ASC_NODE":"155.0772","MEAN_ANOMALY":"272.0113","MEAN_MOTION_DDOT":"0.0000000000000","MEAN_MOTION_DOT":"0.00000795","REF_FRAME":"TEME","EPOCH":"2021-12-01T17:23:56.170752","TLE_LINE2":"2 46352  53.0535 155.0772 0002162  88.1123 272.0113 15.06390369 69805"}];
